OBJECT_NAME,OBJECT_ID,EPOCH,MEAN_MOTION,ECCENTRICITY,INCLINATION,RA_OF_ASC_NODE,ARG_OF_PERICENTER,MEAN_ANOMALY,EPHEMERIS_TYPE,CLASSIFICATION_TYPE,NORAD_CAT_ID,ELEMENT_SET_NO,REV_AT_EPOCH,BSTAR,MEAN_MOTION_DOT,MEAN_MOTION_DDOT
SAUDISAT 1C (SO-50),2002-058C,2026-07-18T20:20:52.738368,14.83102386,.00744158,64.5520,31.0228,256.6060,102.6744,0,U,27607,999,26915,.62972146E-4,.381E-5,0
SAUDISAT 2,2004-025F,2026-07-18T21:36:55.265760,14.56699371,.00242981,98.5522,200.7043,196.5846,163.4559,0,U,28371,999,17036,.31189337E-4,.9E-6,0
SAUDISAT 3,2007-012B,2026-07-18T19:28:36.843456,14.71441294,.00157672,98.1469,150.2358,123.9606,236.3101,0,U,31118,999,3239,.22514249E-4,.89E-6,0
PISAT,2016-059B,2026-07-18T21:14:51.469152,14.69033314,.00305378,97.8193,198.9785,103.5620,256.8991,0,U,41784,999,52439,.81293294E-4,.433E-5,0
FLYING LAPTOP,2017-042G,2026-07-18T21:53:55.845024,15.01327988,.00195396,97.4828,354.2552,20.6794,339.5217,0,U,42831,999,49121,.16326689E-3,.2052E-4,0
SALSAT,2020-068K,2026-07-18T00:21:03.770208,15.30195257,.00094957,97.8861,203.9671,182.8082,177.3106,0,U,46495,999,32007,.14176866E-3,.4061E-4,0
