SAUDISAT 1C (SO-50)     
1 27607U 02058C   26199.84783262  .00000381  00000+0  62972-4 0  9995
2 27607  64.5520  31.0228 0074415 256.6060 102.6744 14.83102386269151
SAUDISAT 2              
1 28371U 04025F   26199.90063965  .00000090  00000+0  31189-4 0  9991
2 28371  98.5522 200.7043 0024298 196.5846 163.4559 14.56699371170365
SAUDISAT 3              
1 31118U 07012B   26199.81153754  .00000089  00000+0  22514-4 0  9999
2 31118  98.1469 150.2358 0015767 123.9606 236.3101 14.71441294 32390
PISAT                   
1 41784U 16059B   26199.88531793  .00000433  00000+0  81293-4 0  9992
2 41784  97.8193 198.9785 0030537 103.5620 256.8991 14.69033314524392
FLYING LAPTOP           
1 42831U 17042G   26199.91245191  .00002052  00000+0  16327-3 0  9991
2 42831  97.4828 354.2552 0019539  20.6794 339.5217 15.01327988491210
SALSAT                  
1 46495U 20068K   26199.01462697  .00004061  00000+0  14177-3 0  9999
2 46495  97.8861 203.9671 0009495 182.8082 177.3106 15.30195257320078
